[{"OBJECT_NAME":"QIANFAN-27","OBJECT_ID":"2024-185J","EPOCH":"2026-03-09T22:56:55.395744","MEAN_MOTION":14.27448593,"ECCENTRICITY":0.00081881,"INCLINATION":88.9753,"RA_OF_ASC_NODE":66.6975,"ARG_OF_PERICENTER":20.0445,"MEAN_ANOMALY":340.107,"EPHEMERIS_TYPE":0,"CLASSIFICATION_TYPE":"U","NORAD_CAT_ID":61560,"ELEMENT_SET_NO":999,"REV_AT_EPOCH":8260,"BSTAR":0.00025107237,"MEAN_MOTION_DOT":6.31e-6,"MEAN_MOTION_DDOT":0},{"OBJECT_NAME":"CZ-6A DEB","OBJECT_ID":"2024-140ABR","EPOCH":"2026-03-09T21:24:48.336768","MEAN_MOTION":14.42252541,"ECCENTRICITY":0.01233467,"INCLINATION":88.4392,"RA_OF_ASC_NODE":244.9518,"ARG_OF_PERICENTER":357.3424,"MEAN_ANOMALY":2.7107,"EPHEMERIS_TYPE":0,"CLASSIFICATION_TYPE":"U","NORAD_CAT_ID":61801,"ELEMENT_SET_NO":999,"REV_AT_EPOCH":7943,"BSTAR":0.0014034336,"MEAN_MOTION_DOT":5.086e-5,"MEAN_MOTION_DDOT":0}]
